OBJECT_NAME,OBJECT_ID,EPOCH,MEAN_MOTION,ECCENTRICITY,INCLINATION,RA_OF_ASC_NODE,ARG_OF_PERICENTER,MEAN_ANOMALY,EPHEMERIS_TYPE,CLASSIFICATION_TYPE,NORAD_CAT_ID,ELEMENT_SET_NO,REV_AT_EPOCH,BSTAR,MEAN_MOTION_DOT,MEAN_MOTION_DDOT
ORBCOMM FM06,1997-084G,2026-06-15T10:30:25.034400,14.47558689,.0001337,45.0144,61.1337,326.2836,203.0983,0,U,25118,999,49413,.31179E-3,.1013E-4,0
ORBCOMM FM04,1998-007C,2026-06-15T12:19:06.064032,14.35738603,.0041306,107.9627,165.9741,327.6526,32.2083,0,U,25159,999,47635,.29268E-3,.722E-5,0
ORBCOMM FM19,1998-046C,2026-06-15T13:05:48.581952,14.39493244,.0004564,44.9934,251.3646,275.0245,99.3269,0,U,25415,999,45654,.23666E-3,.602E-5,0
ORBCOMM FM20,1998-046D,2026-06-15T13:17:52.148256,14.38064654,.0002204,44.9938,259.2291,244.8791,115.1829,0,U,25416,999,45655,.2052E-3,.485E-5,0
ORBCOMM FM27,1998-053G,2026-06-15T04:11:07.132704,14.39137819,.0000815,45.0066,344.9140,185.1611,174.9230,0,U,25481,999,44994,.28390103E-3,.744E-5,0
ORBCOMM FM32,1999-065C,2026-06-15T06:35:14.074944,14.37128142,.0004572,45.0137,182.2936,24.7461,335.3605,0,U,25982,999,38681,.1797E-3,.397E-5,0
ORBCOMM FM109,2014-040A,2026-06-15T12:33:15.060672,14.58843120,.0001877,47.0031,99.3543,242.6178,117.4517,0,U,40086,999,63410,.10727E-3,.336E-5,0
ORBCOMM FM110,2015-081D,2026-06-14T23:32:25.723392,14.58877578,.0002568,47.0033,11.8752,62.5466,297.5681,0,U,41182,999,55730,.16367798E-3,.603E-5,0
ORBCOMM FM118,2015-081E,2026-06-14T22:43:07.293216,14.58877028,.00028838,47.0047,12.3690,17.4423,342.6561,0,U,41183,999,55740,.53123907E-3,.2342E-4,0
ORBCOMM FM112,2015-081F,2026-06-15T00:28:22.513728,14.58901548,.00036057,46.9994,280.4970,208.7435,151.3253,0,U,41184,999,55863,.1497221E-3,.537E-5,0
ORBCOMM FM113,2015-081G,2026-06-14T14:02:53.344032,14.58856169,.0002139,47.0013,282.9257,214.6325,145.4422,0,U,41185,999,55855,.10887E-3,.343E-5,0
ORBCOMM FM108,2015-081J,2026-06-15T08:52:12.916416,14.58868106,.0002858,47.0033,190.7913,215.3797,144.6900,0,U,41187,999,55981,.95815E-4,.282E-5,0
ORBCOMM FM117,2015-081K,2026-06-15T11:19:47.197920,14.58864098,.0003395,46.9997,188.9409,217.6813,142.3835,0,U,41188,999,55987,.87705E-4,.243E-5,0
ORBCOMM FM116,2015-081L,2026-06-15T00:59:56.793120,14.58880501,.00006525,47.0026,280.7669,46.7508,313.3432,0,U,41189,999,55862,.15455329E-3,.56E-5,0
