ORBCOMM FM06            
1 25118U 97084G   26166.43778975  .00001013  00000+0  31179-3 0  9994
2 25118  45.0144  61.1337 0001337 326.2836 203.0983 14.47558689494135
ORBCOMM FM04            
1 25159U 98007C   26166.51326463  .00000722  00000+0  29268-3 0  9997
2 25159 107.9627 165.9741 0041306 327.6526  32.2083 14.35738603476357
ORBCOMM FM19            
1 25415U 98046C   26166.54570118  .00000602  00000+0  23666-3 0  9999
2 25415  44.9934 251.3646 0004564 275.0245  99.3269 14.39493244456548
ORBCOMM FM20            
1 25416U 98046D   26166.55407579  .00000485  00000+0  20520-3 0  9996
2 25416  44.9938 259.2291 0002204 244.8791 115.1829 14.38064654456553
ORBCOMM FM27            
1 25481U 98053G   26166.17438811  .00000744  00000+0  28390-3 0  9998
2 25481  45.0066 344.9140 0000815 185.1611 174.9230 14.39137819449947
ORBCOMM FM32            
1 25982U 99065C   26166.27446846  .00000397  00000+0  17970-3 0  9992
2 25982  45.0137 182.2936 0004572  24.7461 335.3605 14.37128142386815
ORBCOMM FM109           
1 40086U 14040A   26166.52309098  .00000336  00000+0  10727-3 0  9995
2 40086  47.0031  99.3543 0001877 242.6178 117.4517 14.58843120634107
ORBCOMM FM110           
1 41182U 15081D   26165.98085328  .00000603  00000+0  16368-3 0  9999
2 41182  47.0033  11.8752 0002568  62.5466 297.5681 14.58877578557307
ORBCOMM FM118           
1 41183U 15081E   26165.94661219  .00002342  00000+0  53124-3 0  9998
2 41183  47.0047  12.3690 0002883  17.4423 342.6561 14.58877028557402
ORBCOMM FM112           
1 41184U 15081F   26166.01970502  .00000537  00000+0  14972-3 0  9998
2 41184  46.9994 280.4970 0003605 208.7435 151.3253 14.58901548558636
ORBCOMM FM113           
1 41185U 15081G   26165.58533963  .00000343  00000+0  10887-3 0  9992
2 41185  47.0013 282.9257 0002139 214.6325 145.4422 14.58856169558552
ORBCOMM FM108           
1 41187U 15081J   26166.36959394  .00000282  00000+0  95815-4 0  9998
2 41187  47.0033 190.7913 0002858 215.3797 144.6900 14.58868106559816
ORBCOMM FM117           
1 41188U 15081K   26166.47207405  .00000243  00000+0  87705-4 0  9996
2 41188  46.9997 188.9409 0003395 217.6813 142.3835 14.58864098559878
ORBCOMM FM116           
1 41189U 15081L   26166.04162955  .00000560  00000+0  15455-3 0  9994
2 41189  47.0026 280.7669 0000652  46.7508 313.3432 14.58880501558620
